55833,ONEWEB-0674,2023,109.55,-1.0,+,87.9,Active,0,LEO,USA,UK,Unknown,Unknown,Unknown,1 55833U 23029AP  24268.46858275  .00000366  00000+0  95366-3 0  9993,2 55833  87.8905  55.1526 0001879  96.1617 263.9727 13.14519784 77230,13.14519784,0.0001879,LEO
55834,ONEWEB-0675,2023,109.11,-1.0,+,87.91,Active,0,LEO,USA,UK,Unknown,Unknown,Unknown,1 55834U 23029AQ  24268.48735706  .00000103  00000+0  22368-3 0  9990,2 55834  87.9113  70.4240 0002083  87.2364 272.9007 13.19726485 76440,13.19726485,0.0002083,LEO
55835,ONEWEB-0720,2023,109.11,-1.0,+,87.91,Active,0,LEO,USA,UK,Unknown,Unknown,Unknown,1 55835U 23029AR  24267.72127780  .00000149  00000+0  34095-3 0  9994,2 55835  87.9110  70.5763 0001944 107.5117 252.6228 13.19723166 75550,13.19723166,0.0001944,LEO
56046,ONEWEB-0537,2023,109.37,-1.0,+,87.92,Active,0,LEO,India,UK,Unknown,Unknown,Unknown,1 56046U 23043A   24268.19184194 -.00000039  00000+0 -13607-3 0  9995,2 56046  87.9170 354.4324 0002006  93.6212 266.5148 13.16593653 76840,13.16593653,0.0002006,LEO
56047,ONEWEB-0538,2023,109.37,-1.0,+,87.92,Active,0,LEO,India,UK,Unknown,Unknown,Unknown,1 56047U 23043B   24267.50154394  .00000043  00000+0  79835-4 0  9998,2 56047  87.9167 354.5891 0002219 101.7415 258.3964 13.16594544 75854,13.16594544,0.0002219,LEO
56048,ONEWEB-0546,2023,109.37,-1.0,+,87.92,Active,0,LEO,India,UK,Unknown,Unknown,Unknown,1 56048U 23043C   24267.71687013 -.00000032  00000+0 -11744-3 0  9995,2 56048  87.9175 354.5124 0001979  76.4948 283.6403 13.16593231 75877,13.16593231,0.0001979,LEO
56049,ONEWEB-0547,2023,108.94,-1.0,+,87.94,Active,0,LEO,India,UK,Unknown,Unknown,Unknown,1 56049U 23043D   24267.71430586  .00000081  00000+0  16567-3 0  9997,2 56049  87.9366   9.7218 0002113 101.1699 258.9672 13.21827784 74807,13.21827784,0.0002113,LEO
56050,ONEWEB-0548,2023,109.37,-1.0,+,87.92,Active,0,LEO,India,UK,Unknown,Unknown,Unknown,1 56050U 23043E   24267.51420642  .00000047  00000+0  88789-4 0  9997,2 56050  87.9168 354.5948 0001374 111.7781 248.3496 13.16594496 75844,13.16594496,0.0001374,LEO
